GLOBALSTAR M001         
1 25162U 98008A   25359.76953880 -.00000057  00000+0  30049-3 0  9992
2 25162  52.0016 135.6005 0000448 332.3625 175.0223 12.38224449267444
GLOBALSTAR M004         
1 25163U 98008B   25359.85296520 -.00000095  00000+0  51205-4 0  9994
2 25163  51.9973 189.4194 0003343  16.6349  87.5902 12.63411382285918
GLOBALSTAR M002         
1 25164U 98008C   25359.72864373 -.00000089  00000+0 -23938-3 0  9993
2 25164  52.0001 119.9428 0002427 127.6242 232.4799 11.61514559206328
GLOBALSTAR M003         
1 25165U 98008D   25359.02350138 -.00000209  00000+0 -12779-2 0  9990
2 25165  51.9923 359.9604 0007976 318.9664  78.9768 12.12040044256367
GLOBALSTAR M014         
1 25306U 98023A   25359.57399007 -.00000077  00000+0  14413-4 0  9993
2 25306  51.9860  39.5305 0000618   3.7462 164.2453 11.65483611213488
GLOBALSTAR M006         
1 25307U 98023B   25359.54234622 -.00000111  00000+0 -71195-3 0  9991
2 25307  51.9939  99.2352 0003925 102.5024 270.5817 11.58178133239000
GLOBALSTAR M015         
1 25308U 98023C   25359.90713508 -.00000063  00000+0  23884-3 0  9994
2 25308  51.9783 205.5883 0013730  59.5167  45.2519 11.48863099216117
GLOBALSTAR M008         
1 25309U 98023D   25358.77206737 -.00000072  00000+0  19237-3 0  9997
2 25309  51.9992   5.4954 0002582 212.9807 318.0765 12.36077453261411
